NORAD_CAT_ID,OBJECT_NAME,OBJECT_TYPE,EPOCH,MEAN_MOTION,ECCENTRICITY,INCLINATION,RA_OF_ASC_NODE,ARG_OF_PERICENTER,MEAN_ANOMALY,BSTAR,MEAN_MOTION_DOT,MEAN_MOTION_DDOT,TLE_LINE0,TLE_LINE1,TLE_LINE2,SEMIMAJOR_AXIS,PERIOD,APOGEE,PERIGEE,DECAYED
53249.0,STARLINK-4128,PAYLOAD,2023-02-10 14:37:15,15.08844426,0.0001029,53.2114,195.8302,102.9839,257.1268,0.00026248,3.893e-05,0.0,0 STARLINK-4128,1 53249U 22086H   23041.60920614  .00003893  00000-0  26248-3 0  9997,2 53249  53.2114 195.8302 0001029 102.9839 257.1268 15.08844426 31336,6917.867,95.437,540.444,539.02,0.0
53249.0,STARLINK-4128,PAYLOAD,2023-02-10 20:58:47,15.08865019,0.0001115,53.2126,194.6412,116.9738,243.1368,0.0013699,0.00021596,0.0,0 STARLINK-4128,1 53249U 22086H   23041.87416224  .00021596  00000-0  13699-2 0  9998,2 53249  53.2126 194.6412 0001115 116.9738 243.1368 15.08865019 31570,6917.804,95.436,540.44,538.898,0.0
53249.0,STARLINK-4128,PAYLOAD,2023-02-11 03:20:20,15.08834436,1.84e-05,53.2129,193.4517,121.1008,239.0002,6.4204e-06,-1.85e-06,0.0,0 STARLINK-4128,1 53249U 22086H   23042.13912558 -.00000185  00000-0  64204-5 0  9992,2 53249  53.2129 193.4517 0000184 121.1008 239.0002 15.08834436 31410,6917.897,95.438,539.89,539.635,0.0
53249.0,STARLINK-4128,PAYLOAD,2023-02-11 12:52:39,15.08843619,7.2e-05,53.2136,191.6651,79.7304,280.3769,0.0007822,0.00012184,0.0,0 STARLINK-4128,1 53249U 22086H   23042.53656921  .00012184  00000-0  78220-3 0  9997,2 53249  53.2136 191.6651 0000720  79.7304 280.3769 15.08843619 31670,6917.869,95.437,540.232,539.236,0.0
53249.0,STARLINK-4128,PAYLOAD,2023-02-11 19:14:12,15.08859423,0.0001211,53.2123,190.4776,84.9558,275.1572,0.0021995,0.00034909,0.0,0 STARLINK-4128,1 53249U 22086H   23042.80152830  .00034909  00000-0  21995-2 0  9992,2 53249  53.2123 190.4776 0001211  84.9558 275.1572 15.08859423 31513,6917.821,95.436,540.524,538.848,0.0
53249.0,STARLINK-4128,PAYLOAD,2023-02-12 03:11:07,15.08839887,0.0001208,53.2125,188.9912,88.6522,271.4609,0.00057501,8.875e-05,0.0,0 STARLINK-4128,1 53249U 22086H   23043.13273123  .00008875  00000-0  57501-3 0  9994,2 53249  53.2125 188.9912 0001208  88.6522 271.4609 15.08839887 31564,6917.881,95.438,540.581,538.91,0.0
53249.0,STARLINK-4128,PAYLOAD,2023-02-12 20:40:23,15.08843675,0.00015,53.213,185.7214,81.2701,278.8461,0.0015054,0.00023754,0.0,0 STARLINK-4128,1 53249U 22086H   23043.86137770  .00023754  00000-0  15054-2 0  9990,2 53249  53.2130 185.7214 0001500  81.2701 278.8461 15.08843675 31672,6917.869,95.437,540.772,538.696,0.0
53249.0,STARLINK-4128,PAYLOAD,2023-02-13 10:58:51,15.08855419,0.0001148,53.213,183.0442,93.0981,267.0143,0.0018955,0.0003002,0.0,0 STARLINK-4128,1 53249U 22086H   23044.45753809  .00030020  00000-0  18955-2 0  9990,2 53249  53.2130 183.0442 0001148  93.0981 267.0143 15.08855419 31761,6917.833,95.437,540.492,538.904,0.0
53249.0,STARLINK-4128,PAYLOAD,2023-02-14 09:14:14,15.08860299,0.0001546,53.214,178.8801,110.6018,249.514,0.0013802,0.00021758,0.0,0 STARLINK-4128,1 53249U 22086H   23045.38489202  .00021758  00000-0  13802-2 0  9990,2 53249  53.2140 178.8801 0001546 110.6018 249.5140 15.08860299 31902,6917.818,95.436,540.753,538.614,0.0
53249.0,STARLINK-4128,PAYLOAD,2023-02-14 20:21:55,15.08878261,5.56e-05,53.2141,176.7993,67.0886,293.0164,0.0022231,0.00035307,0.0,0 STARLINK-4128,1 53249U 22086H   23045.84856444  .00035307  00000-0  22231-2 0  9998,2 53249  53.2141 176.7993 0000556  67.0886 293.0164 15.08878261 32178,6917.763,95.435,540.013,539.244,0.0
53249.0,STARLINK-4128,PAYLOAD,2023-02-15 01:08:06,15.08835512,8.23e-05,53.2141,175.9065,109.4458,250.6624,8.8033e-05,1.113e-05,0.0,0 STARLINK-4128,1 53249U 22086H   23046.04729177  .00001113  00000-0  88033-4 0  9995,2 53249  53.2141 175.9065 0000823 109.4458 250.6624 15.08835512 32006,6917.894,95.438,540.328,539.19,0.0
53249.0,STARLINK-4128,PAYLOAD,2023-02-15 12:15:49,15.08798786,7.98e-05,53.2129,173.8254,129.509,230.5973,0.00091799,0.00014336,0.0,0 STARLINK-4128,1 53249U 22086H   23046.51099063  .00014336  00000-0  91799-3 0  9994,2 53249  53.2129 173.8254 0000798 129.5090 230.5973 15.08798786 32279,6918.006,95.44,540.423,539.319,0.0
53249.0,STARLINK-4128,PAYLOAD,2023-02-15 20:12:45,15.08824695,5.9e-05,53.2126,172.3379,109.1426,250.963,0.0035277,0.0005628,0.0,0 STARLINK-4128,1 53249U 22086H   23046.84219865  .00056280  00000-0  35277-2 0  9996,2 53249  53.2126 172.3379 0000590 109.1426 250.9630 15.08824695 32124,6917.927,95.439,540.2,539.384,0.0
53249.0,STARLINK-4128,PAYLOAD,2023-02-16 12:06:35,15.08919459,4.68e-05,53.2124,169.3644,94.916,265.1886,0.0036876,0.0005902,0.0,0 STARLINK-4128,1 53249U 22086H   23047.50458175  .00059020  00000-0  36876-2 0  9990,2 53249  53.2124 169.3644 0000468  94.9160 265.1886 15.08919459 32420,6917.638,95.433,539.826,539.179,0.0
53249.0,STARLINK-4128,PAYLOAD,2023-02-16 15:17:21,15.08936347,4.59e-05,53.2122,168.7698,112.2761,247.8279,0.0039796,0.00063789,0.0,0 STARLINK-4128,1 53249U 22086H   23047.63705351  .00063789  00000-0  39796-2 0  9996,2 53249  53.2122 168.7698 0000459 112.2761 247.8279 15.08936347 32249,6917.586,95.431,539.768,539.133,0.0
53249.0,STARLINK-4128,PAYLOAD,2023-02-16 18:28:06,15.08952904,5.2e-05,53.2119,168.1751,119.2701,240.8343,0.0038617,0.00061903,0.0,0 STARLINK-4128,1 53249U 22086H   23047.76952423  .00061903  00000-0  38617-2 0  9991,2 53249  53.2119 168.1751 0000520 119.2701 240.8343 15.08952904 32465,6917.535,95.43,539.76,539.041,0.0
53249.0,STARLINK-4128,PAYLOAD,2023-02-17 16:43:31,15.08845403,0.0004996,53.2136,164.0104,167.3198,192.792,-0.00067364,-0.00010999,0.0,0 STARLINK-4128,1 53249U 22086H   23048.69688902 -.00010999  00000-0 -67364-3 0  9995,2 53249  53.2136 164.0104 0004996 167.3198 192.7920 15.08845403 32401,6917.864,95.437,543.185,536.273,0.0
53249.0,STARLINK-4128,PAYLOAD,2023-02-17 21:29:41,15.08810787,0.0002054,53.2137,163.1186,167.1944,192.91,-0.00053334,-8.76e-05,0.0,0 STARLINK-4128,1 53249U 22086H   23048.89561445 -.00008760  00000-0 -53334-3 0  9994,2 53249  53.2137 163.1186 0002054 167.1944 192.9100 15.08810787 32636,6917.97,95.439,541.256,538.414,0.0
53249.0,STARLINK-4128,PAYLOAD,2023-02-18 07:02:00,15.08836707,8.45e-05,53.214,161.3352,154.6135,205.4898,0.0042363,0.00067775,0.0,0 STARLINK-4128,1 53249U 22086H   23049.29306153  .00067775  00000-0  42363-2 0  9990,2 53249  53.2140 161.3352 0000845 154.6135 205.4898 15.08836707 32492,6917.89,95.438,540.34,539.171,0.0
53249.0,STARLINK-4128,PAYLOAD,2023-02-18 13:23:33,15.08853658,0.0001297,53.2143,160.1456,134.2252,225.8847,0.0029409,0.00046845,0.0,0 STARLINK-4128,1 53249U 22086H   23049.55802407  .00046845  00000-0  29409-2 0  9993,2 53249  53.2143 160.1456 0001297 134.2252 225.8847 15.08853658 32734,6917.839,95.437,540.601,538.806,0.0
53249.0,STARLINK-4128,PAYLOAD,2023-02-19 00:31:15,15.08872897,9.5e-05,53.2152,158.0644,94.6757,265.4343,0.0030745,0.00049027,0.0,0 STARLINK-4128,1 53249U 22086H   23050.02170532  .00049027  00000-0  30745-2 0  9994,2 53249  53.2152 158.0644 0000950  94.6757 265.4343 15.08872897 32606,6917.78,95.435,540.302,538.988,0.0
53249.0,STARLINK-4128,PAYLOAD,2023-02-19 13:14:20,15.08865781,8.68e-05,53.2136,155.6865,95.5777,264.5314,0.0019543,0.00030974,0.0,0 STARLINK-4128,1 53249U 22086H   23050.55162410  .00030974  00000-0  19543-2 0  9992,2 53249  53.2136 155.6865 0000868  95.5777 264.5314 15.08865781 32686,6917.802,95.436,540.267,539.066,0.0
53249.0,STARLINK-4128,PAYLOAD,2023-02-20 06:43:34,15.08857908,0.0001992,53.2152,152.4155,86.629,273.493,0.0010151,0.00015912,0.0,0 STARLINK-4128,1 53249U 22086H   23051.28026361  .00015912  00000-0  10151-2 0  9998,2 53249  53.2152 152.4155 0001992  86.6290 273.4930 15.08857908 32798,6917.826,95.436,541.069,538.313,0.0
53249.0,STARLINK-4128,PAYLOAD,2023-02-20 13:05:08,15.08775741,0.0001701,53.2154,151.2262,81.6872,278.4313,-0.0019483,-0.00031108,0.0,0 STARLINK-4128,1 53249U 22086H   23051.54524117 -.00031108  00000-0 -19483-2 0  9993,2 53249  53.2154 151.2262 0001701  81.6872 278.4313 15.08775741 33037,6918.077,95.442,541.119,538.765,0.0
53249.0,STARLINK-4128,PAYLOAD,2023-02-20 17:51:16,15.08864219,0.0001341,53.2154,150.3339,74.9267,285.1873,0.00065926,0.00010227,0.0,0 STARLINK-4128,1 53249U 22086H   23051.74393798  .00010227  00000-0  65926-3 0  9995,2 53249  53.2154 150.3339 0001341  74.9267 285.1873 15.08864219 32860,6917.806,95.436,540.599,538.744,0.0
53249.0,STARLINK-4128,PAYLOAD,2023-02-21 06:34:21,15.08848784,0.0001334,53.2116,147.9543,94.2473,265.8672,0.00030298,4.538e-05,0.0,0 STARLINK-4128,1 53249U 22086H   23052.27386070  .00004538  00000-0  30298-3 0  9991,2 53249  53.2116 147.9543 0001334  94.2473 265.8672 15.08848784 32943,6917.854,95.437,540.641,538.796,0.0
53249.0,STARLINK-4128,PAYLOAD,2023-02-21 12:55:53,15.08858034,0.0001429,53.2146,146.7651,93.8151,266.3004,0.00080165,0.000125,0.0,0 STARLINK-4128,1 53249U 22086H   23052.53881887  .00012500  00000-0  80165-3 0  9992,2 53249  53.2146 146.7651 0001429  93.8151 266.3004 15.08858034 33187,6917.825,95.436,540.679,538.702,0.0
53249.0,STARLINK-4128,PAYLOAD,2023-02-21 17:42:02,15.08861034,0.0001074,53.2147,145.8731,100.3542,259.7571,0.00072476,0.00011272,0.0,0 STARLINK-4128,1 53249U 22086H   23052.73753427  .00011272  00000-0  72476-3 0  9993,2 53249  53.2147 145.8731 0001074 100.3542 259.7571 15.08861034 33214,6917.816,95.436,540.424,538.938,0.0
53249.0,STARLINK-4128,PAYLOAD,2023-02-22 11:11:17,15.08844836,0.0001411,53.2139,142.6017,95.8605,264.2548,0.00038054,5.774e-05,0.0,0 STARLINK-4128,1 53249U 22086H   23053.46617938  .00005774  00000-0  38054-3 0  9994,2 53249  53.2139 142.6017 0001411  95.8605 264.2548 15.08844836 33126,6917.866,95.437,540.707,538.754,0.0
53249.0,STARLINK-4128,PAYLOAD,2023-02-22 22:19:00,15.08830133,0.0001029,53.2137,140.5197,104.3949,255.7158,-8.4233e-05,-1.628e-05,0.0,0 STARLINK-4128,1 53249U 22086H   23053.92986173 -.00001628  00000-0 -84233-4 0  9992,2 53249  53.2137 140.5197 0001029 104.3949 255.7158 15.08830133 33398,6917.911,95.438,540.487,539.064,0.0
